SAUDISAT 1C (SO-50)     
1 27607U 02058C   26182.92283374  .00000977  00000+0  13244-3 0  9993
2 27607  64.5520  83.3935 0074908 259.7212  99.5442 14.83077352266640
SAUDISAT 2              
1 28371U 04025F   26182.93449500  .00000268  00000+0  71011-4 0  9994
2 28371  98.5510 183.2976 0023502 250.5472 109.3185 14.56692213167891
SAUDISAT 3              
1 31118U 07012B   26182.81112794  .00000276  00000+0  52657-4 0  9999
2 31118  98.1461 133.2217 0014645 175.7209 184.4125 14.71433828 29899
PISAT                   
1 41784U 16059B   26182.92499757  .00001048  00000+0  18560-3 0  9991
2 41784  97.8182 182.7446 0029608 155.7051 204.5559 14.69009529521904
FLYING LAPTOP           
1 42831U 17042G   26182.98307652  .00004938  00000+0  38726-3 0  9993
2 42831  97.4750 337.9527 0019984  74.4276 285.9153 15.01241953488676
SALSAT                  
1 46495U 20068K   26182.92716775  .00008869  00000+0  30791-3 0  9990
2 46495  97.8846 186.8910 0008027 245.2054 114.8351 15.30008157317615
